start=new Date('2022-11-27T00:00:00.000Z').valueOf();
sats=[{"MEAN_ANOMALY":"280.2047","APOAPSIS":"548.203","MEAN_ELEMENT_THEORY":"SGP4","PERIOD":"95.592","FILE":"3671048","LAUNCH_DATE":"2021-04-29","CLASSIFICATION_TYPE":"U","COUNTRY_CODE":"US","GP_ID":"218891653","NORAD_CAT_ID":"48300","SITE":"AFETR","TLE_LINE1":"1 48300U 21036AA  22330.70896385 -.00000089  00000-0  12944-4 0  9995","EPOCH":"2022-11-26T17:00:54.476640","TLE_LINE2":"2 48300  53.0565  74.0403 0001442  79.9105 280.2047 15.06402847 87466","ELEMENT_SET_NO":"999","ECCENTRICITY":"0.00014420","PERIAPSIS":"546.206","MEAN_MOTION_DDOT":"0.0000000000000","REF_FRAME":"TEME","MEAN_MOTION_DOT":"-0.00000089","ARG_OF_PERICENTER":"79.9105","OBJECT_NAME":"STARLINK-2538","REV_AT_EPOCH":"8746","CENTER_NAME":"EARTH","OBJECT_ID":"2021-036AA","INCLINATION":"53.0565","BSTAR":"0.00001294400000","EPHEMERIS_TYPE":"0","RA_OF_ASC_NODE":"74.0403","RCS_SIZE":"LARGE","DECAY_DATE":null,"MEAN_MOTION":"15.06402847","TIME_SYSTEM":"UTC","SEMIMAJOR_AXIS":"6925.340","OBJECT_TYPE":"PAYLOAD"},{"COUNTRY_CODE":"US","GP_ID":"218891404","CLASSIFICATION_TYPE":"U","FILE":"3671048","LAUNCH_DATE":"2021-04-29","APOAPSIS":"548.123","MEAN_ELEMENT_THEORY":"SGP4","PERIOD":"95.592","MEAN_ANOMALY":"273.0460","SITE":"AFETR","NORAD_CAT_ID":"48301","EPOCH":"2022-11-26T16:55:36.138432","TLE_LINE1":"1 48301U 21036AB  22330.70527938  .00002126  00000-0  16155-3 0  9991","REV_AT_EPOCH":"8745","OBJECT_NAME":"STARLINK-2537","ARG_OF_PERICENTER":"87.0684","MEAN_MOTION_DOT":"0.00002126","MEAN_MOTION_DDOT":"0.0000000000000","PERIAPSIS":"546.254","REF_FRAME":"TEME","ECCENTRICITY":"0.00013490","ELEMENT_SET_NO":"999","TLE_LINE2":"2 48301  53.0567  74.0797 0001349  87.0684 273.0460 15.06408160 87455","INCLINATION":"53.0567","OBJECT_ID":"2021-036AB","CENTER_NAME":"EARTH","RCS_SIZE":"LARGE","RA_OF_ASC_NODE":"74.0797","EPHEMERIS_TYPE":"0","BSTAR":"0.00016155000000","OBJECT_TYPE":"PAYLOAD","SEMIMAJOR_AXIS":"6925.324","TIME_SYSTEM":"UTC","MEAN_MOTION":"15.06408160","DECAY_DATE":null},{"NORAD_CAT_ID":"48302","SITE":"AFETR","CLASSIFICATION_TYPE":"U","COUNTRY_CODE":"US","GP_ID":"218892655","LAUNCH_DATE":"2021-04-29","FILE":"3671048","PERIOD":"95.592","APOAPSIS":"548.198","MEAN_ELEMENT_THEORY":"SGP4","MEAN_ANOMALY":"276.3137","OBJECT_NAME":"STARLINK-2556","REV_AT_EPOCH":"8745","MEAN_MOTION_DOT":"0.00001777","ARG_OF_PERICENTER":"83.8018","REF_FRAME":"TEME","PERIAPSIS":"546.180","MEAN_MOTION_DDOT":"0.0000000000000","TLE_LINE2":"2 48302  53.0560  74.0790 0001457  83.8018 276.3137 15.06407858 87457","ELEMENT_SET_NO":"999","ECCENTRICITY":"0.00014570","EPOCH":"2022-11-26T16:50:17.852928","TLE_LINE1":"1 48302U 21036AC  22330.70159552  .00001777  00000-0  13816-3 0  9997","RA_OF_ASC_NODE":"74.0790","RCS_SIZE":"LARGE","BSTAR":"0.00013816000000","EPHEMERIS_TYPE":"0","INCLINATION":"53.0560","OBJECT_ID":"2021-036AC","CENTER_NAME":"EARTH","OBJECT_TYPE":"PAYLOAD","SEMIMAJOR_AXIS":"6925.324","MEAN_MOTION":"15.06407858","TIME_SYSTEM":"UTC","DECAY_DATE":null},{"INCLINATION":"53.0556","CENTER_NAME":"EARTH","OBJECT_ID":"2021-036AD","RCS_SIZE":"LARGE","RA_OF_ASC_NODE":"74.1057","EPHEMERIS_TYPE":"0","BSTAR":"0.00011904000000","SEMIMAJOR_AXIS":"6925.329","OBJECT_TYPE":"PAYLOAD","DECAY_DATE":null,"TIME_SYSTEM":"UTC","MEAN_MOTION":"15.06406391","LAUNCH_DATE":"2021-04-29","FILE":"3671048","COUNTRY_CODE":"US","GP_ID":"218892405","CLASSIFICATION_TYPE":"U","MEAN_ANOMALY":"285.6278","APOAPSIS":"548.224","MEAN_ELEMENT_THEORY":"SGP4","PERIOD":"95.592","SITE":"AFETR","NORAD_CAT_ID":"48303","EPOCH":"2022-11-26T16:43:37.936704","TLE_LINE1":"1 48303U 21036AD  22330.69696686  .00001492  00000-0  11904-3 0  9990","ARG_OF_PERICENTER":"74.4875","MEAN_MOTION_DOT":"0.00001492","REV_AT_EPOCH":"8745","OBJECT_NAME":"STARLINK-2530","ECCENTRICITY":"0.00014880","ELEMENT_SET_NO":"999","TLE_LINE2":"2 48303  53.0556  74.1057 0001488  74.4875 285.6278 15.06406391 87451","PERIAPSIS":"546.163","REF_FRAME":"TEME","MEAN_MOTION_DDOT":"0.0000000000000"},{"MEAN_MOTION":"15.06407970","TIME_SYSTEM":"UTC","DECAY_DATE":null,"OBJECT_TYPE":"PAYLOAD","SEMIMAJOR_AXIS":"6925.324","BSTAR":"-0.00000960400000","EPHEMERIS_TYPE":"0","RA_OF_ASC_NODE":"74.1146","RCS_SIZE":"LARGE","OBJECT_ID":"2021-036AE","CENTER_NAME":"EARTH","INCLINATION":"53.0554","REF_FRAME":"TEME","PERIAPSIS":"546.267","MEAN_MOTION_DDOT":"0.0000000000000","TLE_LINE2":"2 48304  53.0554  74.1146 0001331 101.0675 259.0463 15.06407970 87456","ECCENTRICITY":"0.00013310","ELEMENT_SET_NO":"999","OBJECT_NAME":"STARLINK-2524","REV_AT_EPOCH":"8745","MEAN_MOTION_DOT":"-0.00000425","ARG_OF_PERICENTER":"101.0675","TLE_LINE1":"1 48304U 21036AE  22330.69422297 -.00000425  00000-0 -96040-5 0  9999","EPOCH":"2022-11-26T16:39:40.864608","NORAD_CAT_ID":"48304","SITE":"AFETR","APOAPSIS":"548.111","PERIOD":"95.592","MEAN_ELEMENT_THEORY":"SGP4","MEAN_ANOMALY":"259.0463","CLASSIFICATION_TYPE":"U","COUNTRY_CODE":"US","GP_ID":"218891154","LAUNCH_DATE":"2021-04-29","FILE":"3671048"},{"NORAD_CAT_ID":"48305","SITE":"AFETR","LAUNCH_DATE":"2021-04-29","FILE":"3671048","CLASSIFICATION_TYPE":"U","COUNTRY_CODE":"US","GP_ID":"218891904","MEAN_ANOMALY":"289.7829","APOAPSIS":"548.100","MEAN_ELEMENT_THEORY":"SGP4","PERIOD":"95.592","MEAN_MOTION_DOT":"0.00002175","ARG_OF_PERICENTER":"70.3300","OBJECT_NAME":"STARLINK-2519","REV_AT_EPOCH":"8745","TLE_LINE2":"2 48305  53.0536  74.1341 0001297  70.3300 289.7829 15.06403836 87451","ELEMENT_SET_NO":"999","ECCENTRICITY":"0.00012970","MEAN_MOTION_DDOT":"0.0000000000000","PERIAPSIS":"546.304","REF_FRAME":"TEME","EPOCH":"2022-11-26T16:33:00.539712","TLE_LINE1":"1 48305U 21036AF  22330.68958958  .00002175  00000-0  16483-3 0  9990","RA_OF_ASC_NODE":"74.1341","RCS_SIZE":"LARGE","BSTAR":"0.00016483000000","EPHEMERIS_TYPE":"0","INCLINATION":"53.0536","CENTER_NAME":"EARTH","OBJECT_ID":"2021-036AF","SEMIMAJOR_AXIS":"6925.337","OBJECT_TYPE":"PAYLOAD","DECAY_DATE":null,"MEAN_MOTION":"15.06403836","TIME_SYSTEM":"UTC"},{"SEMIMAJOR_AXIS":"6925.306","OBJECT_TYPE":"PAYLOAD","DECAY_DATE":null,"TIME_SYSTEM":"UTC","MEAN_MOTION":"15.06413967","RCS_SIZE":"LARGE","RA_OF_ASC_NODE":"74.1553","EPHEMERIS_TYPE":"0","BSTAR":"0.00013349000000","INCLINATION":"53.0562","CENTER_NAME":"EARTH","OBJECT_ID":"2021-036AG","ARG_OF_PERICENTER":"78.3131","MEAN_MOTION_DOT":"0.00001708","REV_AT_EPOCH":"8745","OBJECT_NAME":"STARLINK-2523","ELEMENT_SET_NO":"999","ECCENTRICITY":"0.00011880","TLE_LINE2":"2 48306  53.0562  74.1553 0001188  78.3131 281.7991 15.06413967 87453","PERIAPSIS":"546.348","REF_FRAME":"TEME","MEAN_MOTION_DDOT":"0.0000000000000","EPOCH":"2022-11-26T16:29:03.771744","TLE_LINE1":"1 48306U 21036AG  22330.68684921  .00001708  00000-0  13349-3 0  9996","SITE":"AFETR","NORAD_CAT_ID":"48306","FILE":"3671048","LAUNCH_DATE":"2021-04-29","GP_ID":"218892156","COUNTRY_CODE":"US","CLASSIFICATION_TYPE":"U","MEAN_ANOMALY":"281.7991","MEAN_ELEMENT_THEORY":"SGP4","APOAPSIS":"547.993","PERIOD":"95.591"},{"OBJECT_NAME":"STARLINK-2528","REV_AT_EPOCH":"8745","MEAN_MOTION_DOT":"0.00002278","ARG_OF_PERICENTER":"77.4948","PERIAPSIS":"546.292","MEAN_MOTION_DDOT":"0.0000000000000","REF_FRAME":"TEME","TLE_LINE2":"2 48307  53.0555  74.1758 0001308  77.4948 282.6187 15.06404999 87455","ELEMENT_SET_NO":"999","ECCENTRICITY":"0.00013080","EPOCH":"2022-11-26T16:23:45.362688","TLE_LINE1":"1 48307U 21036AH  22330.68316392  .00002278  00000-0  17177-3 0  9997","NORAD_CAT_ID":"48307","SITE":"AFETR","CLASSIFICATION_TYPE":"U","COUNTRY_CODE":"US","GP_ID":"218892905","LAUNCH_DATE":"2021-04-29","FILE":"3671048","APOAPSIS":"548.104","PERIOD":"95.592","MEAN_ELEMENT_THEORY":"SGP4","MEAN_ANOMALY":"282.6187","OBJECT_TYPE":"PAYLOAD","SEMIMAJOR_AXIS":"6925.333","MEAN_MOTION":"15.06404999","TIME_SYSTEM":"UTC","DECAY_DATE":null,"RA_OF_ASC_NODE":"74.1758","RCS_SIZE":"LARGE","BSTAR":"0.00017177000000","EPHEMERIS_TYPE":"0","INCLINATION":"53.0555","OBJECT_ID":"2021-036AH","CENTER_NAME":"EARTH"},{"OBJECT_ID":"2021-036AJ","CENTER_NAME":"EARTH","INCLINATION":"53.0559","BSTAR":"0.00017458000000","EPHEMERIS_TYPE":"0","RA_OF_ASC_NODE":"74.4826","RCS_SIZE":"LARGE","MEAN_MOTION":"15.06407431","TIME_SYSTEM":"UTC","DECAY_DATE":null,"OBJECT_TYPE":"PAYLOAD","SEMIMAJOR_AXIS":"6925.326","APOAPSIS":"548.299","PERIOD":"95.592","MEAN_ELEMENT_THEORY":"SGP4","MEAN_ANOMALY":"294.7156","CLASSIFICATION_TYPE":"U","GP_ID":"218891654","COUNTRY_CODE":"US","FILE":"3671048","LAUNCH_DATE":"2021-04-29","NORAD_CAT_ID":"48308","SITE":"AFETR","TLE_LINE1":"1 48308U 21036AJ  22330.61313216  .00002320  00000-0  17458-3 0  9993","EPOCH":"2022-11-26T14:42:54.618624","MEAN_MOTION_DDOT":"0.0000000000000","PERIAPSIS":"546.083","REF_FRAME":"TEME","TLE_LINE2":"2 48308  53.0559  74.4826 0001600  65.3999 294.7156 15.06407431 87449","ELEMENT_SET_NO":"999","ECCENTRICITY":"0.00016000","OBJECT_NAME":"STARLINK-2532","REV_AT_EPOCH":"8744","MEAN_MOTION_DOT":"0.00002320","ARG_OF_PERICENTER":"65.3999"},{"INCLINATION":"53.0543","OBJECT_ID":"2021-036AK","CENTER_NAME":"EARTH","RA_OF_ASC_NODE":"74.2081","RCS_SIZE":"LARGE","BSTAR":"0.00012929000000","EPHEMERIS_TYPE":"0","OBJECT_TYPE":"PAYLOAD","SEMIMAJOR_AXIS":"6925.345","MEAN_MOTION":"15.06401310","TIME_SYSTEM":"UTC","DECAY_DATE":null,"CLASSIFICATION_TYPE":"U","GP_ID":"218891405","COUNTRY_CODE":"US","LAUNCH_DATE":"2021-04-29","FILE":"3671048","APOAPSIS":"548.079","PERIOD":"95.592","MEAN_ELEMENT_THEORY":"SGP4","MEAN_ANOMALY":"272.1494","NORAD_CAT_ID":"48309","SITE":"AFETR","EPOCH":"2022-11-26T16:13:08.611104","TLE_LINE1":"1 48309U 21036AK  22330.67579411  .00001645  00000-0  12929-3 0  9998","OBJECT_NAME":"STARLINK-2517","REV_AT_EPOCH":"8745","MEAN_MOTION_DOT":"0.00001645","ARG_OF_PERICENTER":"87.9639","REF_FRAME":"TEME","PERIAPSIS":"546.340","MEAN_MOTION_DDOT":"0.0000000000000","TLE_LINE2":"2 48309  53.0543  74.2081 0001255  87.9639 272.1494 15.06401310 87457","ELEMENT_SET_NO":"999","ECCENTRICITY":"0.00012550"}];
